[{"OBJECT_NAME":"RISAT-2BR1","OBJECT_ID":"2019-089F","EPOCH":"2026-03-09T22:23:56.080608","MEAN_MOTION":15.01632497,"ECCENTRICITY":0.00130957,"INCLINATION":36.9618,"RA_OF_ASC_NODE":340.419,"ARG_OF_PERICENTER":88.0635,"MEAN_ANOMALY":272.1607,"EPHEMERIS_TYPE":0,"CLASSIFICATION_TYPE":"U","NORAD_CAT_ID":44857,"ELEMENT_SET_NO":999,"REV_AT_EPOCH":34227,"BSTAR":0.00042406412,"MEAN_MOTION_DOT":5.543e-5,"MEAN_MOTION_DDOT":0},{"OBJECT_NAME":"STARLINK-34707","OBJECT_ID":"2025-175C","EPOCH":"2026-03-09T14:31:26.503968","MEAN_MOTION":15.05648935,"ECCENTRICITY":0.0002409,"INCLINATION":97.6027,"RA_OF_ASC_NODE":302.5092,"ARG_OF_PERICENTER":63.5234,"MEAN_ANOMALY":296.6239,"EPHEMERIS_TYPE":0,"CLASSIFICATION_TYPE":"U","NORAD_CAT_ID":65176,"ELEMENT_SET_NO":999,"REV_AT_EPOCH":3262,"BSTAR":0.00022392,"MEAN_MOTION_DOT":3.172e-5,"MEAN_MOTION_DDOT":0}]
